STARLINK-31334          
1 59157U 24044F   26068.81628732 -.00002151  00000+0 -68658-4 0  9997
2 59157  43.0034 109.8659 0001304 290.5191  69.5521 15.27573584113545
TROLL                   
1 62658U 25009BB  26068.22522958  .00013174  00000+0  48220-3 0  9994
2 62658  97.3932 150.7169 0001816  59.1850 300.9568 15.28164315118170
